APRIZESAT 2             
1 28366U 04025A   22226.50216562  .00000074  00000+0  36622-4 0  9990
2 28366  98.1581  92.6552 0107878 159.9485 200.5991 14.36833778950156
SAUDICOMSAT 1           
1 28369U 04025D   22226.42482983  .00000230  00000+0  67165-4 0  9996
2 28369  98.4446 188.4348 0033480 359.6497   0.4669 14.52829116960269
SAUDICOMSAT 2           
1 28370U 04025E   22226.45882939  .00000148  00000+0  52022-4 0  9990
2 28370  98.5364 187.6224 0057474 184.7872 175.2778 14.47723718957025
APRIZESAT 1             
1 28372U 04025G   22226.50556442  .00000140  00000+0  47937-4 0  9996
2 28372  98.4974 187.8526 0047475  98.6042 262.0535 14.49824524958512
NANOSAT-1               
1 28493U 04049B   22226.27641571  .00000448  00000+0  75880-4 0  9997
2 28493  98.1153 327.1153 0005817 105.1508 255.0344 14.74059117948382
SAUDICOMSAT 7           
1 31119U 07012C   22226.38599658  .00000263  00000+0  61003-4 0  9996
2 31119  98.1866 171.7085 0058343 269.7569  89.6946 14.62135747817177
SAUDICOMSAT 6           
1 31121U 07012E   22226.46265974  .00000350  00000+0  82083-4 0  9997
2 31121  98.2274 167.0703 0076599  13.2679 347.0511 14.58916452815404
SAUDICOMSAT 5           
1 31124U 07012H   22226.45296901  .00000254  00000+0  57275-4 0  9991
2 31124  98.1556 173.3159 0050469 214.1858 145.6092 14.63861265818072
SAUDICOMSAT 3           
1 31125U 07012J   22226.37141007  .00000346  00000+0  71763-4 0  9999
2 31125  98.1214 174.6694 0043370 159.8519 200.4409 14.65686801819069
SAUDICOMSAT 4           
1 31127U 07012L   22226.38099314  .00000323  00000+0  74582-4 0  9992
2 31127  98.2094 170.0876 0066817 319.3421  40.2801 14.60647047816333
APRIZESAT 4             
1 35684U 09041D   22226.52597758  .00000320  00000+0  49576-4 0  9991
2 35684  98.3106 242.1613 0047176 163.9043 196.3679 14.79697026703658
APRIZESAT 3             
1 35686U 09041F   22226.46653582  .00000491  00000+0  57658-4 0  9993
2 35686  98.1065 314.4337 0071924 357.9046   2.1858 14.88004852707234
AISSAT 1                
1 36797U 10035C   22226.51808285  .00000822  00000+0  97901-4 0  9993
2 36797  98.2399  52.5976 0010640 348.9459  11.1520 14.87207879655077
S-NET D                 
1 43186U 18014G   22226.54230826  .00001540  00000+0  13495-3 0  9994
2 43186  97.6517 131.1636 0012313 102.7108 257.5492 14.98068438247614
S-NET B                 
1 43187U 18014H   22226.54251667  .00001552  00000+0  13597-3 0  9997
2 43187  97.6514 131.1125 0012334 102.7107 257.5495 14.98066506247614
S-NET A                 
1 43188U 18014J   22226.54281582  .00001555  00000+0  13622-3 0  9999
2 43188  97.6518 131.1796 0012328 102.7732 257.4869 14.98066099247611
S-NET C                 
1 43189U 18014K   22226.27644322  .00001569  00000+0  13739-3 0  9999
2 43189  97.6513 130.8396 0012359 103.3877 256.8724 14.98062597246127
SALSAT                  
1 46495U 20068K   22226.42058268  .00001266  00000+0  94098-4 0  9991
2 46495  97.7313 167.7535 0018343  82.0066 278.3240 15.04709548102906
